METEOSAT-11 (MSG-4)     
1 40732U 15034A   26063.37683795  .00000051  00000+0  00000+0 0  9998
2 40732   2.9374  71.6812 0001803 270.6417 324.8599  1.00266090  6164
ELEKTRO-L 2             
1 41105U 15074A   26062.86880331 -.00000128  00000+0  00000+0 0  9991
2 41105   6.4296  71.8188 0003467 237.1165 150.9510  1.00270829 37457
INSAT-3DR               
1 41752U 16054A   26063.62512220 -.00000088  00000+0  00000+0 0  9997
2 41752   0.0478  96.4704 0013224 185.3950 179.5257  1.00272451 34772
HIMAWARI-9              
1 41836U 16064A   26063.56433706 -.00000286  00000+0  00000+0 0  9995
2 41836   0.0143 179.2435 0001186 190.2974 136.7047  1.00272269 34162
GOES 16                 
1 41866U 16071A   26063.35669706 -.00000102  00000+0  00000+0 0  9991
2 41866   0.1377  89.7852 0002555 217.0177 239.0082  1.00271047 34054
FENGYUN 4A              
1 41882U 16077A   26063.13308794 -.00000369  00000+0  00000+0 0  9993
2 41882   2.0552  81.4150 0007464 135.8137 116.1229  1.00279325 33879
CYGFM05                 
1 41884U 16078A   26063.55453097  .00034004  00000+0  54797-3 0  9997
2 41884  34.9567 231.0511 0007061 241.0281 118.9734 15.51875455512463
CYGFM04                 
1 41885U 16078B   26063.55083940  .00038215  00000+0  54394-3 0  9995
2 41885  34.9330 203.3310 0006120 275.3846  84.6180 15.55266754512669
CYGFM02                 
1 41886U 16078C   26063.58769563  .00105694  00000+0  13695-2 0  9995
2 41886  34.9411 200.0974 0007082 277.0728  82.9190 15.57532132512813
CYGFM01                 
1 41887U 16078D   26063.58316739  .00034156  00000+0  54183-3 0  9991
2 41887  34.9397 232.6774 0006735 234.1184 125.8913 15.52312229512414
CYGFM08                 
1 41888U 16078E   26063.50389724  .00038958  00000+0  58503-3 0  9992
2 41888  34.9432 215.1277 0008187 257.7536 102.2270 15.53788064512649
CYGFM07                 
1 41890U 16078G   26063.60121598  .00036085  00000+0  52875-3 0  9994
2 41890  34.9455 202.9662 0006664 278.9406  81.0563 15.54484346512688
CYGFM03                 
1 41891U 16078H   26063.57232184  .00037252  00000+0  54555-3 0  9999
2 41891  34.9407 205.1346 0005979 263.8461  96.1581 15.54499334512659
FENGYUN 3D              
1 43010U 17072A   26063.63235396 -.00000046  00000+0  87425-7 0  9992
2 43010  99.0017  36.2251 0001832  23.5964 336.5295 14.19712214430156
NOAA 20 (JPSS-1)        
1 43013U 17073A   26063.54200331  .00000101  00000+0  68982-4 0  9992
2 43013  98.7687   3.9805 0000976 144.4813 215.6429 14.19534477429627
GOES 17                 
1 43226U 18022A   26063.35114212 -.00000194  00000+0  00000+0 0  9999
2 43226   0.6680  87.5564 0002253 221.5500 249.8945  1.00270359 29370
FENGYUN 2H              
1 43491U 18050A   26063.67740244 -.00000136  00000+0  00000+0 0  9995
2 43491   2.7614  80.3546 0001895 174.9360 230.0620  1.00272622 28399
